{"type": "FeatureCollection", "features": [ {"type": "Feature", "properties": {"norad_id": 66052, "name": "HRC MONOBLOCK CAMERA", "group": "stations", "lat": -50.56226044211922, "lon": -15.179999176498374, "alt_km": 405.9085630467898, "timestamp": "2025-12-22T23:36:19.445043+00:00", "meta": {"OBJECT_NAME": "HRC MONOBLOCK CAMERA", "OBJECT_ID": "1998-067XR", "EPOCH": "2025-12-21T17:10:53.034240", "MEAN_MOTION": 15.54728821, "ECCENTRICITY": 0.00023026, "INCLINATION": 51.6309, "RA_OF_ASC_NODE": 96.7319, "ARG_OF_PERICENTER": 227.1692, "MEAN_ANOMALY": 132.9105, "EPHEMERIS_TYPE": 0, "CLASSIFICATION_TYPE": "U", "NORAD_CAT_ID": 66052, "ELEMENT_SET_NO": 999, "REV_AT_EPOCH": 1023, "BSTAR": 0.00048538169, "MEAN_MOTION_DOT": 0.00032497, "MEAN_MOTION_DDOT": 0}, "tle": {"line1": "1 66052U 98067XR  25355.71589160  .00032497  00000+0  48538-3 0  9991", "line2": "2 66052  51.6309  96.7319 0002302 227.1692 132.9105 15.54728821 10236"}}, "geometry": {"type": "Point", "coordinates": [-15.179999176498374, -50.56226044211922]}}, {"type": "Feature", "properties": {"norad_id": 66174, "name": "HTV-X1", "group": "stations", "lat": -20.09966557964394, "lon": 74.89547271576242, "alt_km": 418.94053015997724, "timestamp": "2025-12-22T23:36:19.445054+00:00", "meta": {"OBJECT_NAME": "HTV-X1", "OBJECT_ID": "2025-241A", "EPOCH": "2025-12-22T12:53:01.598784", "MEAN_MOTION": 15.49728746, "ECCENTRICITY": 0.00031539, "INCLINATION": 51.6324, "RA_OF_ASC_NODE": 93.9618, "ARG_OF_PERICENTER": 285.9755, "MEAN_ANOMALY": 74.0886, "EPHEMERIS_TYPE": 0, "CLASSIFICATION_TYPE": "U", "NORAD_CAT_ID": 66174, "ELEMENT_SET_NO": 999, "REV_AT_EPOCH": 51, "BSTAR": 0.00021249665, "MEAN_MOTION_DOT": 0.00011576, "MEAN_MOTION_DDOT": 0}, "tle": {"line1": "1 66174U 25241A   25356.53682406  .00011576  00000+0  21250-3 0  9995", "line2": "2 66174  51.6324  93.9618 0003153 285.9755  74.0886 15.49728746   518"}}, "geometry": {"type": "Point", "coordinates": [74.89547271576242, -20.09966557964394]}}, {"type": "Feature", "properties": {"norad_id": 66515, "name": "SZ-21 MODULE", "group": "stations", "lat": 16.103693658124598, "lon": 114.45633603591563, "alt_km": 379.5971609333883, "timestamp": "2025-12-22T23:36:19.445063+00:00", "meta": {"OBJECT_NAME": "SZ-21 MODULE", "OBJECT_ID": "2025-246C", "EPOCH": "2025-12-22T06:04:32.826144", "MEAN_MOTION": 15.62957896, "ECCENTRICITY": 0.00052091, "INCLINATION": 41.4776, "RA_OF_ASC_NODE": 317.9924, "ARG_OF_PERICENTER": 311.1717, "MEAN_ANOMALY": 48.8673, "EPHEMERIS_TYPE": 0, "CLASSIFICATION_TYPE": "U", "NORAD_CAT_ID": 66515, "ELEMENT_SET_NO": 999, "REV_AT_EPOCH": 593, "BSTAR": 0.00031521047, "MEAN_MOTION_DOT": 0.00029176, "MEAN_MOTION_DDOT": 0}, "tle": {"line1": "1 66515U 25246C   25356.25315771  .00029176  00000+0  31521-3 0  9993", "line2": "2 66515  41.4776 317.9924 0005209 311.1717  48.8673 15.62957896  5937"}}, "geometry": {"type": "Point", "coordinates": [114.45633603591563, 16.103693658124598]}}, {"type": "Feature", "properties": {"norad_id": 66645, "name": "SHENZHOU-22", "group": "stations", "lat": 33.74481811473123, "lon": 85.34342602333251, "alt_km": 377.99062775973835, "timestamp": "2025-12-22T23:36:19.445073+00:00", "meta": {"OBJECT_NAME": "SHENZHOU-22", "OBJECT_ID": "2025-272A", "EPOCH": "2025-12-22T13:51:36.698976", "MEAN_MOTION": 15.59570921, "ECCENTRICITY": 0.00078575, "INCLINATION": 41.4686, "RA_OF_ASC_NODE": 316.9649, "ARG_OF_PERICENTER": 117.6887, "MEAN_ANOMALY": 242.475, "EPHEMERIS_TYPE": 0, "CLASSIFICATION_TYPE": "U", "NORAD_CAT_ID": 66645, "ELEMENT_SET_NO": 999, "REV_AT_EPOCH": 26550, "BSTAR": 0.00022463103, "MEAN_MOTION_DOT": 0.00018108, "MEAN_MOTION_DDOT": 0}, "tle": {"line1": "1 66645U 25272A   25356.57750809  .00018108  00000+0  22463-3 0  9994", "line2": "2 66645  41.4686 316.9649 0007857 117.6887 242.4750 15.59570921265507"}}, "geometry": {"type": "Point", "coordinates": [85.34342602333251, 33.74481811473123]}}, {"type": "Feature", "properties": {"norad_id": 66664, "name": "SOYUZ-MS 28", "group": "stations", "lat": -20.09966417427781, "lon": 74.89547403322987, "alt_km": 418.9405300896342, "timestamp": "2025-12-22T23:36:19.445083+00:00", "meta": {"OBJECT_NAME": "SOYUZ-MS 28", "OBJECT_ID": "2025-275A", "EPOCH": "2025-12-22T12:53:01.598784", "MEAN_MOTION": 15.49728746, "ECCENTRICITY": 0.00031539, "INCLINATION": 51.6324, "RA_OF_ASC_NODE": 93.9618, "ARG_OF_PERICENTER": 285.9755, "MEAN_ANOMALY": 74.0886, "EPHEMERIS_TYPE": 0, "CLASSIFICATION_TYPE": "U", "NORAD_CAT_ID": 66664, "ELEMENT_SET_NO": 999, "REV_AT_EPOCH": 128, "BSTAR": 0.00021249665, "MEAN_MOTION_DOT": 0.00011576, "MEAN_MOTION_DDOT": 0}, "tle": {"line1": "1 66664U 25275A   25356.53682406  .00011576  00000+0  21250-3 0  9996", "line2": "2 66664  51.6324  93.9618 0003153 285.9755  74.0886 15.49728746  1287"}}, "geometry": {"type": "Point", "coordinates": [74.89547403322987, -20.09966417427781]}}, {"type": "Feature", "properties": {"norad_id": 66906, "name": "1998-067XS", "group": "stations", "lat": 35.450295405862626, "lon": 125.933153659521, "alt_km": 410.59790319458625, "timestamp": "2025-12-22T23:36:19.445094+00:00", "meta": {"OBJECT_NAME": "1998-067XS", "OBJECT_ID": "1998-067XS", "EPOCH": "2025-12-22T11:01:48.942336", "MEAN_MOTION": 15.51071617, "ECCENTRICITY": 0.00028954, "INCLINATION": 51.6319, "RA_OF_ASC_NODE": 94.197, "ARG_OF_PERICENTER": 250.8689, "MEAN_ANOMALY": 109.1987, "EPHEMERIS_TYPE": 0, "CLASSIFICATION_TYPE": "U", "NORAD_CAT_ID": 66906, "ELEMENT_SET_NO": 999, "REV_AT_EPOCH": 312, "BSTAR": 0.00051361561, "MEAN_MOTION_DOT": 0.00030106, "MEAN_MOTION_DDOT": 0}, "tle": {"line1": "1 66906U 98067XS  25356.45959424  .00030106  00000+0  51362-3 0  9999", "line2": "2 66906  51.6319  94.1970 0002895 250.8689 109.1987 15.51071617  3121"}}, "geometry": {"type": "Point", "coordinates": [125.933153659521, 35.450295405862626]}}, {"type": "Feature", "properties": {"norad_id": 66907, "name": "1998-067XT", "group": "stations", "lat": 47.98604504458428, "lon": -150.1107980119994, "alt_km": 404.9193812691037, "timestamp": "2025-12-22T23:36:19.445104+00:00", "meta": {"OBJECT_NAME": "1998-067XT", "OBJECT_ID": "1998-067XT", "EPOCH": "2025-12-22T07:41:32.890848", "MEAN_MOTION": 15.52583192, "ECCENTRICITY": 0.00038425, "INCLINATION": 51.6311, "RA_OF_ASC_NODE": 94.7687, "ARG_OF_PERICENTER": 286.1212, "MEAN_ANOMALY": 73.9355, "EPHEMERIS_TYPE": 0, "CLASSIFICATION_TYPE": "U", "NORAD_CAT_ID": 66907, "ELEMENT_SET_NO": 999, "REV_AT_EPOCH": 310, "BSTAR": 0.0011084243, "MEAN_MOTION_DOT": 0.00069527, "MEAN_MOTION_DDOT": 0}, "tle": {"line1": "1 66907U 98067XT  25356.32051957  .00069527  00000+0  11084-2 0  9995", "line2": "2 66907  51.6311  94.7687 0003842 286.1212  73.9355 15.52583192  3104"}}, "geometry": {"type": "Point", "coordinates": [-150.1107980119994, 47.98604504458428]}}, {"type": "Feature", "properties": {"norad_id": 66908, "name": "1998-067XU", "group": "stations", "lat": 45.77029433682012, "lon": -143.01914810129702, "alt_km": 404.96794466149004, "timestamp": "2025-12-22T23:36:19.445113+00:00", "meta": {"OBJECT_NAME": "1998-067XU", "OBJECT_ID": "1998-067XU", "EPOCH": "2025-12-22T12:18:16.541280", "MEAN_MOTION": 15.52707663, "ECCENTRICITY": 0.00038713, "INCLINATION": 51.631, "RA_OF_ASC_NODE": 93.8007, "ARG_OF_PERICENTER": 283.9304, "MEAN_ANOMALY": 76.1255, "EPHEMERIS_TYPE": 0, "CLASSIFICATION_TYPE": "U", "NORAD_CAT_ID": 66908, "ELEMENT_SET_NO": 999, "REV_AT_EPOCH": 313, "BSTAR": 0.0010107547, "MEAN_MOTION_DOT": 0.00063598, "MEAN_MOTION_DDOT": 0}, "tle": {"line1": "1 66908U 98067XU  25356.51269145  .00063598  00000+0  10108-2 0  9995", "line2": "2 66908  51.6310  93.8007 0003871 283.9304  76.1255 15.52707663  3137"}}, "geometry": {"type": "Point", "coordinates": [-143.01914810129702, 45.77029433682012]}}, {"type": "Feature", "properties": {"norad_id": 66909, "name": "SILVERSAT", "group": "stations", "lat": 42.07372092292472, "lon": -134.21979569990344, "alt_km": 404.9179589608084, "timestamp": "2025-12-22T23:36:19.445124+00:00", "meta": {"OBJECT_NAME": "SILVERSAT", "OBJECT_ID": "1998-067XV", "EPOCH": "2025-12-22T12:16:28.422912", "MEAN_MOTION": 15.52898333, "ECCENTRICITY": 0.0003866, "INCLINATION": 51.6306, "RA_OF_ASC_NODE": 93.7929, "ARG_OF_PERICENTER": 288.2093, "MEAN_ANOMALY": 71.8476, "EPHEMERIS_TYPE": 0, "CLASSIFICATION_TYPE": "U", "NORAD_CAT_ID": 66909, "ELEMENT_SET_NO": 999, "REV_AT_EPOCH": 313, "BSTAR": 0.0011325313, "MEAN_MOTION_DOT": 0.00071888, "MEAN_MOTION_DDOT": 0}, "tle": {"line1": "1 66909U 98067XV  25356.51144008  .00071888  00000+0  11325-2 0  9999", "line2": "2 66909  51.6306  93.7929 0003866 288.2093  71.8476 15.52898333  3134"}}, "geometry": {"type": "Point", "coordinates": [-134.21979569990344, 42.07372092292472]}}, {"type": "Feature", "properties": {"norad_id": 66910, "name": "1998-067XW", "group": "stations", "lat": 36.264626771602735, "lon": -124.11679645737311, "alt_km": 405.1910820195535, "timestamp": "2025-12-22T23:36:19.445136+00:00", "meta": {"OBJECT_NAME": "1998-067XW", "OBJECT_ID": "1998-067XW", "EPOCH": "2025-12-22T12:13:56.337312", "MEAN_MOTION": 15.52855241, "ECCENTRICITY": 0.00039884, "INCLINATION": 51.6304, "RA_OF_ASC_NODE": 93.7808, "ARG_OF_PERICENTER": 260.6768, "MEAN_ANOMALY": 99.3771, "EPHEMERIS_TYPE": 0, "CLASSIFICATION_TYPE": "U", "NORAD_CAT_ID": 66910, "ELEMENT_SET_NO": 999, "REV_AT_EPOCH": 313, "BSTAR": 0.0010313397, "MEAN_MOTION_DOT": 0.00065266, "MEAN_MOTION_DDOT": 0}, "tle": {"line1": "1 66910U 98067XW  25356.50967983  .00065266  00000+0  10313-2 0  9994", "line2": "2 66910  51.6304  93.7808 0003988 260.6768  99.3771 15.52855241  3132"}}, "geometry": {"type": "Point", "coordinates": [-124.11679645737311, 36.264626771602735]}}]}